$$SOE
2461288.500000000, A.D. 2026-Sep-05 00:00:00.0000, -2.360370981628585E+08, -3.264357109642544E+08, -8.294655039504279E+07,
2461295.500000000, A.D. 2026-Sep-12 00:00:00.0000, -2.268748443714621E+08, -3.312873905413095E+08, -8.439345088343430E+07,
2461302.500000000, A.D. 2026-Sep-19 00:00:00.0000, -2.175531376768959E+08, -3.359062484691199E+08, -8.578103595437337E+07,
2461309.500000000, A.D. 2026-Sep-26 00:00:00.0000, -2.080774005350259E+08, -3.402872950165894E+08, -8.710788449172737E+07,
2461316.500000000, A.D. 2026-Oct-03 00:00:00.0000, -1.984532265209449E+08, -3.444256048731513E+08, -8.837258958952741E+07,
2461323.500000000, A.D. 2026-Oct-10 00:00:00.0000, -1.886863833707301E+08, -3.483163217378570E+08, -8.957375975259551E+07,
2461330.500000000, A.D. 2026-Oct-17 00:00:00.0000, -1.787828160188822E+08, -3.519546632882237E+08, -9.071002018287013E+07,
2461337.500000000, A.D. 2026-Oct-24 00:00:00.0000, -1.687486495911071E+08, -3.553359265632229E+08, -9.178001415898533E+07,
2461344.500000000, A.D. 2026-Oct-31 00:00:00.0000, -1.585901922367215E+08, -3.584554938383185E+08, -9.278240452690120E+07,
2461351.500000000, A.D. 2026-Nov-07 00:00:00.0000, -1.483139374431865E+08, -3.613088389290821E+08, -9.371587532964262E+07,
2461358.500000000, A.D. 2026-Nov-14 00:00:00.0000, -1.379265656118367E+08, -3.638915330459266E+08, -9.457913352479398E+07,
2461365.500000000, A.D. 2026-Nov-21 00:00:00.0000, -1.274349466845596E+08, -3.661992495267913E+08, -9.537091057012939E+07,
2461372.500000000, A.D. 2026-Nov-28 00:00:00.0000, -1.168461447948570E+08, -3.682277704637219E+08, -9.608996403367443E+07,
2461379.500000000, A.D. 2026-Dec-05 00:00:00.0000, -1.061674212974738E+08, -3.699729958887597E+08, -9.673507961644001E+07,
2461386.500000000, A.D. 2026-Dec-12 00:00:00.0000, -9.540623598507640E+07, -3.714309524172993E+08, -9.730507335158062E+07,
2461393.500000000, A.D. 2026-Dec-19 00:00:00.0000, -8.457024835119787E+07, -3.725978013493912E+08, -9.779879380853419E+07,
2461400.500000000, A.D. 2026-Dec-26 00:00:00.0000, -7.366731901168847E+07, -3.734698471018772E+08, -9.821512436154328E+07,
2461407.500000000, A.D. 2027-Jan-02 00:00:00.0000, -6.270551097673521E+07, -3.740435461653569E+08, -9.855298556443816E+07,
2461414.500000000, A.D. 2027-Jan-09 00:00:00.0000, -5.169309062226577E+07, -3.743155165671818E+08, -9.881133764129415E+07,
2461421.500000000, A.D. 2027-Jan-16 00:00:00.0000, -4.063852828912533E+07, -3.742825478318620E+08, -9.898918309595799E+07,
2461428.500000000, A.D. 2027-Jan-23 00:00:00.0000, -2.955049842647392E+07, -3.739416114777254E+08, -9.908556944846800E+07,
2461435.500000000, A.D. 2027-Jan-30 00:00:00.0000, -1.843787905324430E+07, -3.732898720949314E+08, -9.909959211972000E+07,
2461442.500000000, A.D. 2027-Feb-06 00:00:00.0000, -7.309750073207213E+06, -3.723246986592763E+08, -9.903039747497967E+07,
2461449.500000000, A.D. 2027-Feb-13 00:00:00.0000, 3.824609137456640E+06, -3.710436748530763E+08, -9.887718588276623E+07,
2461456.500000000, A.D. 2027-Feb-20 00:00:00.0000, 1.495572054980930E+07, -3.694446091705605E+08, -9.863921463409895E+07,
2461463.500000000, A.D. 2027-Feb-27 00:00:00.0000, 2.607390815169432E+07, -3.675255480040946E+08, -9.831580110917063E+07,
2461470.500000000, A.D. 2027-Mar-06 00:00:00.0000, 3.716930153390042E+07, -3.652847897701598E+08, -9.790632630778360E+07,
2461477.500000000, A.D. 2027-Mar-13 00:00:00.0000, 4.823184084106312E+07, -3.627208980044546E+08, -9.741023842528236E+07,
2461484.500000000, A.D. 2027-Mar-20 00:00:00.0000, 5.925128200576902E+07, -3.598327142341391E+08, -9.682705643271837E+07,
2461491.500000000, A.D. 2027-Mar-27 00:00:00.0000, 7.021720251532522E+07, -3.566193711433319E+08, -9.615637371639001E+07,
2461498.500000000, A.D. 2027-Apr-03 00:00:00.0000, 8.111900796120267E+07, -3.530803060396012E+08, -9.539786178820363E+07,
2461505.500000000, A.D. 2027-Apr-10 00:00:00.0000, 9.194593948046619E+07, -3.492152745505143E+08, -9.455127405686615E+07,
2461512.500000000, A.D. 2027-Apr-17 00:00:00.0000, 1.026870821619672E+08, -3.450243645103632E+08, -9.361644964837506E+07,
2461519.500000000, A.D. 2027-Apr-24 00:00:00.0000, 1.133313745490720E+08, -3.405080100424586E+08, -9.259331727455068E+07,
2461526.500000000, A.D. 2027-May-01 00:00:00.0000, 1.238676195888457E+08, -3.356670057518193E+08, -9.148189916246238E+07,
2461533.500000000, A.D. 2027-May-08 00:00:00.0000, 1.342844973792748E+08, -3.305025202193893E+08, -9.028231499834652E+07,
2461540.500000000, A.D. 2027-May-15 00:00:00.0000, 1.445705782550067E+08, -3.250161077762613E+08, -8.899478565391919E+07,
2461547.500000000, A.D. 2027-May-22 00:00:00.0000, 1.547143346798511E+08, -3.192097210705405E+08, -8.761963674241883E+07,
2461554.500000000, A.D. 2027-May-29 00:00:00.0000, 1.647041553312548E+08, -3.130857258071628E+08, -8.615730240858120E+07,
2461561.500000000, A.D. 2027-Jun-05 00:00:00.0000, 1.745283622873350E+08, -3.066469144367522E+08, -8.460832915340112E+07,
2461568.500000000, A.D. 2027-Jun-12 00:00:00.0000, 1.841752293279932E+08, -2.998965182649176E+08, -8.297337944861557E+07,
2461575.500000000, A.D. 2027-Jun-19 00:00:00.0000, 1.936330010303476E+08, -2.928382188140764E+08, -8.125323515954158E+07,
2461582.500000000, A.D. 2027-Jun-26 00:00:00.0000, 2.028899129409567E+08, -2.854761585909632E+08, -7.944880079440202E+07,
2461589.500000000, A.D. 2027-Jul-03 00:00:00.0000, 2.119342129506778E+08, -2.778149511392208E+08, -7.756110656149438E+07,
2461596.500000000, A.D. 2027-Jul-10 00:00:00.0000, 2.207541838917564E+08, -2.698596902523912E+08, -7.559131120545754E+07,
2461603.500000000, A.D. 2027-Jul-17 00:00:00.0000, 2.293381673640614E+08, -2.616159582662397E+08, -7.354070459623232E+07,
2461610.500000000, A.D. 2027-Jul-24 00:00:00.0000, 2.376745889058399E+08, -2.530898333696924E+08, -7.141071005623882E+07,
2461617.500000000, A.D. 2027-Jul-31 00:00:00.0000, 2.457519848687386E+08, -2.442878955752604E+08, -6.920288641037701E+07,
2461624.500000000, A.D. 2027-Aug-07 00:00:00.0000, 2.535590307315271E+08, -2.352172300771540E+08, -6.691892961262089E+07,
2461631.500000000, A.D. 2027-Aug-14 00:00:00.0000, 2.610845684690627E+08, -2.258854281318454E+08, -6.456067372411078E+07,
2461638.500000000, A.D. 2027-Aug-21 00:00:00.0000, 2.683176334949281E+08, -2.163005887040794E+08, -6.213009153854704E+07,
2461645.500000000, A.D. 2027-Aug-28 00:00:00.0000, 2.752474844970216E+08, -2.064713195548696E+08, -5.962929503691269E+07,
2461652.500000000, A.D. 2027-Sep-04 00:00:00.0000, 2.818636348628244E+08, -1.964067351575650E+08, -5.706053532793117E+07,
2461659.500000000, A.D. 2027-Sep-11 00:00:00.0000, 2.881558841635045E+08, -1.861164520022340E+08, -5.442620197286300E+07,
2461666.500000000, A.D. 2027-Sep-18 00:00:00.0000, 2.941143496801222E+08, -1.756105818484301E+08, -5.172882173545285E+07,
2461673.500000000, A.D. 2027-Sep-25 00:00:00.0000, 2.997294980369502E+08, -1.648997229264283E+08, -4.897105676267430E+07,
2461680.500000000, A.D. 2027-Oct-02 00:00:00.0000, 3.049921768398916E+08, -1.539949489959070E+08, -4.615570218206061E+07,
2461687.500000000, A.D. 2027-Oct-09 00:00:00.0000, 3.098936461531146E+08, -1.429077962186164E+08, -4.328568310230957E+07,
2461694.500000000, A.D. 2027-Oct-16 00:00:00.0000, 3.144256096758327E+08, -1.316502478685616E+08, -4.036405101521542E+07,
2461701.500000000, A.D. 2027-Oct-23 00:00:00.0000, 3.185802456668432E+08, -1.202347168699371E+08, -3.739397961502901E+07,
2461708.500000000, A.D. 2027-Oct-30 00:00:00.0000, 3.223502377748312E+08, -1.086740255529020E+08, -3.437876001672400E+07,
2461715.500000000, A.D. 2027-Nov-06 00:00:00.0000, 3.257288043976120E+08, -9.698138152283344E+07, -3.132179517774065E+07,
2461722.500000000, A.D. 2027-Nov-13 00:00:00.0000, 3.287097243692083E+08, -8.517035177077761E+07, -2.822659352016611E+07,
2461729.500000000, A.D. 2027-Nov-20 00:00:00.0000, 3.312873616539713E+08, -7.325483728191611E+07, -2.509676221254474E+07,
2461736.500000000, A.D. 2027-Nov-27 00:00:00.0000, 3.334566904473235E+08, -6.124904526661347E+07, -2.193600003790275E+07,
2461743.500000000, A.D. 2027-Dec-04 00:00:00.0000, 3.352133184535773E+08, -4.916745821347336E+07, -1.874808961483036E+07,
2461750.500000000, A.D. 2027-Dec-11 00:00:00.0000, 3.365535075949181E+08, -3.702480086658710E+07, -1.553688903300056E+07,
2461757.500000000, A.D. 2027-Dec-18 00:00:00.0000, 3.374741922421528E+08, -2.483600562749475E+07, -1.230632299462155E+07,
2461764.500000000, A.D. 2027-Dec-25 00:00:00.0000, 3.379729949467255E+08, -1.261617656714113E+07, -9.060373519807860E+06,
2461771.500000000, A.D. 2028-Jan-01 00:00:00.0000, 3.380482395557687E+08, -3.805522345336617E+05, -5.803070267757988E+06,
$$EOE